{
  "type": "FeatureCollection",
  "features": [
    {
      "type": "Feature",
      "geometry": {
        "type": "Polygon",
        "coordinates": [
          [
            [20.951944, 52.262261],
            [20.950881, 52.262921],
            [20.943923, 52.264839],
            [20.942942, 52.264781],
            [20.942029, 52.26614],
            [20.9392, 52.267014],
            [20.927423, 52.26946],
            [20.920148, 52.270832],
            [20.916448, 52.271892],
            [20.901749, 52.275332],
            [20.893426, 52.27717],
            [20.890552, 52.278941],
            [20.889132, 52.280483],
            [20.887952, 52.280035],
            [20.885863, 52.280433],
            [20.884856, 52.279262],
            [20.881154, 52.279515],
            [20.878719, 52.265149],
            [20.863806, 52.250017],
            [20.86752, 52.24944],
            [20.872207, 52.249404],
            [20.876548, 52.248551],
            [20.881712, 52.247915],
            [20.88502, 52.247202],
            [20.890983, 52.246966],
            [20.891459, 52.24499],
            [20.894017, 52.2437],
            [20.893143, 52.239712],
            [20.889513, 52.231999],
            [20.887277, 52.232161],
            [20.879732, 52.232022],
            [20.877977, 52.23094],
            [20.873101, 52.229084],
            [20.872725, 52.225805],
            [20.87528, 52.224803],
            [20.87462, 52.21666],
            [20.873087, 52.216665],
            [20.87194, 52.215264],
            [20.871017, 52.210382],
            [20.87016, 52.210391],
            [20.870899, 52.208854],
            [20.876838, 52.209582],
            [20.880344, 52.209066],
            [20.881858, 52.20988],
            [20.887083, 52.210887],
            [20.899137, 52.212404],
            [20.914237, 52.21419],
            [20.914664, 52.214627],
            [20.915471, 52.217146],
            [20.921191, 52.218294],
            [20.923033, 52.219183],
            [20.924376, 52.220584],
            [20.924568, 52.221881],
            [20.921711, 52.227591],
            [20.921308, 52.229408],
            [20.924652, 52.240027],
            [20.925596, 52.242425],
            [20.926915, 52.243887],
            [20.93213, 52.24669],
            [20.938533, 52.249893],
            [20.940396, 52.250517],
            [20.94412, 52.252442],
            [20.946164, 52.253973],
            [20.947859, 52.255921],
            [20.947008, 52.256981],
            [20.950113, 52.259608],
            [20.951944, 52.262261]
          ]
        ]
      },
      "properties": { "name": "Bemowo" },
      "id": "relation/2531595"
    },
    {
      "type": "Feature",
      "geometry": {
        "type": "Polygon",
        "coordinates": [
          [
            [20.951944, 52.262261],
            [20.955173, 52.26479],
            [20.959159, 52.268511],
            [20.962745, 52.271376],
            [20.964407, 52.273737],
            [20.967189, 52.274175],
            [20.970223, 52.275477],
            [20.971887, 52.276627],
            [20.976562, 52.27907],
            [20.976832, 52.279515],
            [20.98517, 52.283377],
            [20.985471, 52.285691],
            [20.98662, 52.286394],
            [20.990034, 52.285136],
            [20.995762, 52.287751],
            [20.993378, 52.289274],
            [20.989359, 52.291281],
            [20.985324, 52.292773],
            [20.980564, 52.294013],
            [20.973072, 52.295268],
            [20.969188, 52.296189],
            [20.963947, 52.297978],
            [20.957529, 52.301318],
            [20.955403, 52.303118],
            [20.951638, 52.307784],
            [20.94749, 52.310654],
            [20.944106, 52.312374],
            [20.937339, 52.314744],
            [20.931033, 52.318201],
            [20.927782, 52.321358],
            [20.925731, 52.32475],
            [20.925016, 52.328026],
            [20.925123, 52.32943],
            [20.922585, 52.326754],
            [20.922058, 52.323735],
            [20.91307, 52.321838],
            [20.910549, 52.324096],
            [20.90896, 52.322659],
            [20.90709, 52.322121],
            [20.906624, 52.323357],
            [20.902956, 52.322468],
            [20.896036, 52.321684],
            [20.894953, 52.321269],
            [20.891479, 52.317625],
            [20.889659, 52.313964],
            [20.886909, 52.3132],
            [20.879413, 52.313796],
            [20.875683, 52.314852],
            [20.875438, 52.314101],
            [20.878329, 52.312055],
            [20.880469, 52.309169],
            [20.879635, 52.308255],
            [20.875795, 52.298658],
            [20.876569, 52.297936],
            [20.877143, 52.294553],
            [20.875756, 52.280488],
            [20.881154, 52.279515],
            [20.884856, 52.279262],
            [20.885863, 52.280433],
            [20.887952, 52.280035],
            [20.889132, 52.280483],
            [20.890552, 52.278941],
            [20.893426, 52.27717],
            [20.901749, 52.275332],
            [20.916448, 52.271892],
            [20.920148, 52.270832],
            [20.927423, 52.26946],
            [20.9392, 52.267014],
            [20.942029, 52.26614],
            [20.942942, 52.264781],
            [20.943923, 52.264839],
            [20.950881, 52.262921],
            [20.951944, 52.262261]
          ]
        ]
      },
      "properties": { "name": "Bielany" },
      "id": "relation/2531981"
    },
    {
      "type": "Feature",
      "geometry": {
        "type": "Polygon",
        "coordinates": [
          [
            [20.914664, 52.214627],
            [20.918443, 52.214665],
            [20.921232, 52.213806],
            [20.924208, 52.213898],
            [20.92273, 52.212552],
            [20.922485, 52.211487],
            [20.923718, 52.210343],
            [20.925475, 52.20976],
            [20.935933, 52.21215],
            [20.938152, 52.212339],
            [20.943222, 52.214281],
            [20.944924, 52.214615],
            [20.949319, 52.214336],
            [20.954008, 52.214518],
            [20.956536, 52.21568],
            [20.958883, 52.218154],
            [20.962051, 52.218608],
            [20.968135, 52.220073],
            [20.968638, 52.219593],
            [20.970525, 52.220713],
            [20.975707, 52.22214],
            [20.9764, 52.222025],
            [20.980418, 52.223341],
            [20.987686, 52.224875],
            [21.001641, 52.22798],
            [20.998179, 52.233211],
            [20.995606, 52.239382],
            [20.993604, 52.241886],
            [20.982644, 52.25457],
            [20.981028, 52.259436],
            [20.979429, 52.259138],
            [20.965589, 52.254311],
            [20.960023, 52.25583],
            [20.954667, 52.255261],
            [20.951486, 52.255518],
            [20.94837, 52.256504],
            [20.947859, 52.255921],
            [20.946164, 52.253973],
            [20.94412, 52.252442],
            [20.940396, 52.250517],
            [20.938533, 52.249893],
            [20.93213, 52.24669],
            [20.926915, 52.243887],
            [20.925596, 52.242425],
            [20.924652, 52.240027],
            [20.921308, 52.229408],
            [20.921711, 52.227591],
            [20.924568, 52.221881],
            [20.924376, 52.220584],
            [20.923033, 52.219183],
            [20.921191, 52.218294],
            [20.915471, 52.217146],
            [20.914664, 52.214627]
          ]
        ]
      },
      "properties": { "name": "Wola" },
      "id": "relation/2531982"
    },
    {
      "type": "Feature",
      "geometry": {
        "type": "Polygon",
        "coordinates": [
          [
            [20.947859, 52.255921],
            [20.94837, 52.256504],
            [20.951486, 52.255518],
            [20.954667, 52.255261],
            [20.960023, 52.25583],
            [20.965589, 52.254311],
            [20.979429, 52.259138],
            [20.981028, 52.259436],
            [20.985476, 52.259773],
            [20.990215, 52.259489],
            [20.997466, 52.259335],
            [21.000107, 52.259055],
            [21.003534, 52.259357],
            [21.009642, 52.261287],
            [21.007767, 52.263434],
            [21.005715, 52.267427],
            [21.004728, 52.270809],
            [21.00377, 52.277636],
            [21.002254, 52.281006],
            [20.999051, 52.285027],
            [20.995762, 52.287751],
            [20.990034, 52.285136],
            [20.98662, 52.286394],
            [20.985471, 52.285691],
            [20.98517, 52.283377],
            [20.976832, 52.279515],
            [20.976562, 52.27907],
            [20.971887, 52.276627],
            [20.970223, 52.275477],
            [20.967189, 52.274175],
            [20.964407, 52.273737],
            [20.962745, 52.271376],
            [20.959159, 52.268511],
            [20.955173, 52.26479],
            [20.951944, 52.262261],
            [20.950113, 52.259608],
            [20.947008, 52.256981],
            [20.947859, 52.255921]
          ]
        ]
      },
      "properties": { "name": "Żoliborz" },
      "id": "relation/2531983"
    },
    {
      "type": "Feature",
      "geometry": {
        "type": "Polygon",
        "coordinates": [
          [
            [20.935933, 52.21215],
            [20.937382, 52.212135],
            [20.936515, 52.210894],
            [20.9372, 52.208858],
            [20.938112, 52.208206],
            [20.943609, 52.202768],
            [20.947225, 52.200942],
            [20.971257, 52.195379],
            [20.981922, 52.192758],
            [20.987922, 52.210279],
            [20.998287, 52.209157],
            [21.006988, 52.210652],
            [21.004952, 52.217243],
            [21.004706, 52.223119],
            [21.001641, 52.22798],
            [20.987686, 52.224875],
            [20.980418, 52.223341],
            [20.9764, 52.222025],
            [20.975707, 52.22214],
            [20.970525, 52.220713],
            [20.968638, 52.219593],
            [20.968135, 52.220073],
            [20.962051, 52.218608],
            [20.958883, 52.218154],
            [20.956536, 52.21568],
            [20.954008, 52.214518],
            [20.949319, 52.214336],
            [20.944924, 52.214615],
            [20.943222, 52.214281],
            [20.938152, 52.212339],
            [20.935933, 52.21215]
          ]
        ]
      },
      "properties": { "name": "Ochota" },
      "id": "relation/2534033"
    },
    {
      "type": "Feature",
      "geometry": {
        "type": "Polygon",
        "coordinates": [
          [
            [20.870899, 52.208854],
            [20.86109, 52.207721],
            [20.856158, 52.206423],
            [20.852765, 52.203925],
            [20.851688, 52.200977],
            [20.852069, 52.199319],
            [20.854106, 52.194925],
            [20.856471, 52.191697],
            [20.856954, 52.190406],
            [20.856089, 52.187641],
            [20.864708, 52.189969],
            [20.867136, 52.190778],
            [20.867166, 52.182497],
            [20.874202, 52.182336],
            [20.879412, 52.182553],
            [20.897726, 52.182541],
            [20.899274, 52.18413],
            [20.901504, 52.184426],
            [20.902664, 52.184019],
            [20.909042, 52.184543],
            [20.909209, 52.185859],
            [20.91477, 52.185842],
            [20.9192, 52.193762],
            [20.915382, 52.192733],
            [20.912127, 52.19428],
            [20.910542, 52.195975],
            [20.9063, 52.197604],
            [20.90318, 52.198326],
            [20.899968, 52.200047],
            [20.900143, 52.201707],
            [20.896723, 52.202722],
            [20.88106, 52.209006],
            [20.880344, 52.209066],
            [20.876838, 52.209582],
            [20.870899, 52.208854]
          ]
        ]
      },
      "properties": { "name": "Ursus" },
      "id": "relation/2534034"
    },
    {
      "type": "Feature",
      "geometry": {
        "type": "Polygon",
        "coordinates": [
          [
            [20.880344, 52.209066],
            [20.88106, 52.209006],
            [20.896723, 52.202722],
            [20.900143, 52.201707],
            [20.899968, 52.200047],
            [20.90318, 52.198326],
            [20.9063, 52.197604],
            [20.910542, 52.195975],
            [20.912127, 52.19428],
            [20.915382, 52.192733],
            [20.9192, 52.193762],
            [20.91477, 52.185842],
            [20.911223, 52.179557],
            [20.917038, 52.178452],
            [20.916765, 52.177805],
            [20.918736, 52.177443],
            [20.91916, 52.176469],
            [20.919159, 52.171081],
            [20.920913, 52.170966],
            [20.92318, 52.168868],
            [20.924821, 52.168431],
            [20.925428, 52.167368],
            [20.923942, 52.166279],
            [20.930486, 52.164037],
            [20.929797, 52.163388],
            [20.937813, 52.160084],
            [20.945326, 52.157961],
            [20.947026, 52.157177],
            [20.953762, 52.156139],
            [20.95377, 52.15299],
            [20.954758, 52.152679],
            [20.958312, 52.150117],
            [20.961426, 52.148567],
            [20.969904, 52.145445],
            [20.9756, 52.144296],
            [20.978646, 52.143138],
            [20.983446, 52.140482],
            [20.984543, 52.142182],
            [20.989407, 52.141852],
            [20.987824, 52.154582],
            [20.987405, 52.160448],
            [20.987032, 52.160673],
            [20.986801, 52.167671],
            [20.987019, 52.171068],
            [20.986598, 52.189054],
            [20.985638, 52.19087],
            [20.984258, 52.19195],
            [20.981922, 52.192758],
            [20.971257, 52.195379],
            [20.947225, 52.200942],
            [20.943609, 52.202768],
            [20.938112, 52.208206],
            [20.9372, 52.208858],
            [20.936515, 52.210894],
            [20.937382, 52.212135],
            [20.935933, 52.21215],
            [20.925475, 52.20976],
            [20.923718, 52.210343],
            [20.922485, 52.211487],
            [20.92273, 52.212552],
            [20.924208, 52.213898],
            [20.921232, 52.213806],
            [20.918443, 52.214665],
            [20.914664, 52.214627],
            [20.914237, 52.21419],
            [20.899137, 52.212404],
            [20.887083, 52.210887],
            [20.881858, 52.20988],
            [20.880344, 52.209066]
          ]
        ]
      },
      "properties": { "name": "Włochy" },
      "id": "relation/2534035"
    },
    {
      "type": "Feature",
      "geometry": {
        "type": "Polygon",
        "coordinates": [
          [
            [21.001641, 52.22798],
            [21.004706, 52.223119],
            [21.004952, 52.217243],
            [21.006988, 52.210652],
            [21.01659, 52.212301],
            [21.02074, 52.213316],
            [21.022019, 52.213123],
            [21.024498, 52.211434],
            [21.025897, 52.209264],
            [21.028584, 52.207211],
            [21.029836, 52.206842],
            [21.034882, 52.206862],
            [21.03627, 52.209586],
            [21.044661, 52.209688],
            [21.04736, 52.21137],
            [21.046403, 52.214363],
            [21.049125, 52.214791],
            [21.049409, 52.214055],
            [21.054313, 52.214797],
            [21.054012, 52.215549],
            [21.061174, 52.216645],
            [21.063564, 52.218946],
            [21.061103, 52.219438],
            [21.055877, 52.221165],
            [21.053141, 52.222557],
            [21.049952, 52.224876],
            [21.046494, 52.228454],
            [21.042333, 52.233498],
            [21.036851, 52.238599],
            [21.032866, 52.241568],
            [21.029301, 52.243837],
            [21.023789, 52.246905],
            [21.021875, 52.248194],
            [21.01855, 52.251212],
            [21.013968, 52.25614],
            [21.009642, 52.261287],
            [21.003534, 52.259357],
            [21.000107, 52.259055],
            [20.997466, 52.259335],
            [20.990215, 52.259489],
            [20.985476, 52.259773],
            [20.981028, 52.259436],
            [20.982644, 52.25457],
            [20.993604, 52.241886],
            [20.995606, 52.239382],
            [20.998179, 52.233211],
            [21.001641, 52.22798]
          ]
        ]
      },
      "properties": { "name": "Śródmieście" },
      "id": "relation/2534036"
    },
    {
      "type": "Feature",
      "geometry": {
        "type": "Polygon",
        "coordinates": [
          [
            [20.981922, 52.192758],
            [20.984258, 52.19195],
            [20.985638, 52.19087],
            [20.986598, 52.189054],
            [20.987019, 52.171068],
            [20.987788, 52.170398],
            [20.988586, 52.17137],
            [20.996872, 52.169299],
            [20.997979, 52.169389],
            [21.008214, 52.167009],
            [21.008749, 52.167835],
            [21.011614, 52.166961],
            [21.012296, 52.165519],
            [21.015856, 52.165652],
            [21.015865, 52.16483],
            [21.018457, 52.164279],
            [21.020839, 52.166712],
            [21.024449, 52.166528],
            [21.025887, 52.16768],
            [21.028246, 52.167529],
            [21.029933, 52.166765],
            [21.036701, 52.168477],
            [21.038848, 52.169487],
            [21.043032, 52.173204],
            [21.04348, 52.174877],
            [21.046433, 52.173968],
            [21.051208, 52.171395],
            [21.054105, 52.169484],
            [21.061781, 52.170219],
            [21.067952, 52.169631],
            [21.068613, 52.170206],
            [21.06306, 52.175314],
            [21.065132, 52.176095],
            [21.065786, 52.175529],
            [21.068333, 52.176401],
            [21.072367, 52.178633],
            [21.072658, 52.179325],
            [21.081047, 52.184551],
            [21.081521, 52.184537],
            [21.08915, 52.181299],
            [21.089702, 52.180623],
            [21.094758, 52.180965],
            [21.094225, 52.1828],
            [21.095085, 52.185192],
            [21.096098, 52.18604],
            [21.098201, 52.186542],
            [21.099314, 52.187822],
            [21.099288, 52.190971],
            [21.100147, 52.191791],
            [21.102794, 52.192742],
            [21.104912, 52.194522],
            [21.104715, 52.201577],
            [21.104089, 52.204073],
            [21.102515, 52.207362],
            [21.099168, 52.211223],
            [21.095247, 52.213775],
            [21.092394, 52.215206],
            [21.089141, 52.216466],
            [21.084338, 52.217735],
            [21.079984, 52.218387],
            [21.076335, 52.218609],
            [21.067501, 52.218508],
            [21.063564, 52.218946],
            [21.061174, 52.216645],
            [21.054012, 52.215549],
            [21.054313, 52.214797],
            [21.049409, 52.214055],
            [21.049125, 52.214791],
            [21.046403, 52.214363],
            [21.04736, 52.21137],
            [21.044661, 52.209688],
            [21.03627, 52.209586],
            [21.034882, 52.206862],
            [21.029836, 52.206842],
            [21.028584, 52.207211],
            [21.025897, 52.209264],
            [21.024498, 52.211434],
            [21.022019, 52.213123],
            [21.02074, 52.213316],
            [21.01659, 52.212301],
            [21.006988, 52.210652],
            [20.998287, 52.209157],
            [20.987922, 52.210279],
            [20.981922, 52.192758]
          ]
        ]
      },
      "properties": { "name": "Mokotów" },
      "id": "relation/2536106"
    },
    {
      "type": "Feature",
      "geometry": {
        "type": "Polygon",
        "coordinates": [
          [
            [20.983446, 52.140482],
            [20.985034, 52.139078],
            [20.980106, 52.132669],
            [20.97989, 52.128075],
            [20.982984, 52.123784],
            [20.989043, 52.123646],
            [20.985103, 52.120234],
            [20.987241, 52.115829],
            [20.983724, 52.11169],
            [20.986696, 52.110561],
            [20.984479, 52.10562],
            [20.98736, 52.105139],
            [20.986859, 52.103903],
            [20.991599, 52.103114],
            [20.991923, 52.103458],
            [21.018685, 52.103718],
            [21.018642, 52.106049],
            [21.035503, 52.10619],
            [21.035199, 52.106765],
            [21.042008, 52.111316],
            [21.043715, 52.112963],
            [21.046102, 52.111985],
            [21.050453, 52.109153],
            [21.052508, 52.108407],
            [21.056529, 52.107725],
            [21.060349, 52.106288],
            [21.069173, 52.102272],
            [21.07421, 52.10036],
            [21.078753, 52.098118],
            [21.079976, 52.09785],
            [21.082377, 52.098526],
            [21.085045, 52.101522],
            [21.08663, 52.102821],
            [21.091892, 52.104644],
            [21.095963, 52.10455],
            [21.103537, 52.105756],
            [21.101829, 52.107816],
            [21.100908, 52.108138],
            [21.098348, 52.108747],
            [21.095083, 52.113762],
            [21.092466, 52.114149],
            [21.08651, 52.11446],
            [21.089128, 52.114886],
            [21.093582, 52.114502],
            [21.094216, 52.114741],
            [21.091711, 52.117651],
            [21.090809, 52.117355],
            [21.089074, 52.118227],
            [21.091725, 52.118422],
            [21.090208, 52.121128],
            [21.088446, 52.123102],
            [21.087241, 52.123067],
            [21.087414, 52.124064],
            [21.085614, 52.126742],
            [21.083132, 52.128628],
            [21.082019, 52.127717],
            [21.081381, 52.128514],
            [21.082465, 52.129057],
            [21.081152, 52.130208],
            [21.081883, 52.130923],
            [21.080916, 52.132865],
            [21.076654, 52.132478],
            [21.080365, 52.133217],
            [21.079183, 52.135393],
            [21.075619, 52.13547],
            [21.073955, 52.137374],
            [21.072329, 52.137233],
            [21.071973, 52.139355],
            [21.067857, 52.144242],
            [21.069905, 52.145096],
            [21.067819, 52.147284],
            [21.063153, 52.1514],
            [21.061145, 52.152516],
            [21.060978, 52.153842],
            [21.059155, 52.156881],
            [21.056316, 52.160317],
            [21.047241, 52.168017],
            [21.04773, 52.168327],
            [21.054105, 52.169484],
            [21.051208, 52.171395],
            [21.046433, 52.173968],
            [21.04348, 52.174877],
            [21.043032, 52.173204],
            [21.038848, 52.169487],
            [21.036701, 52.168477],
            [21.029933, 52.166765],
            [21.028246, 52.167529],
            [21.025887, 52.16768],
            [21.024449, 52.166528],
            [21.020839, 52.166712],
            [21.018457, 52.164279],
            [21.015865, 52.16483],
            [21.015856, 52.165652],
            [21.012296, 52.165519],
            [21.011614, 52.166961],
            [21.008749, 52.167835],
            [21.008214, 52.167009],
            [20.997979, 52.169389],
            [20.996872, 52.169299],
            [20.988586, 52.17137],
            [20.987788, 52.170398],
            [20.987019, 52.171068],
            [20.986801, 52.167671],
            [20.987032, 52.160673],
            [20.987405, 52.160448],
            [20.987824, 52.154582],
            [20.989407, 52.141852],
            [20.984543, 52.142182],
            [20.983446, 52.140482]
          ]
        ]
      },
      "properties": { "name": "Ursynów" },
      "id": "relation/2536107"
    },
    {
      "type": "Feature",
      "geometry": {
        "type": "Polygon",
        "coordinates": [
          [
            [21.054105, 52.169484],
            [21.04773, 52.168327],
            [21.047241, 52.168017],
            [21.056316, 52.160317],
            [21.059155, 52.156881],
            [21.060978, 52.153842],
            [21.061145, 52.152516],
            [21.063153, 52.1514],
            [21.067819, 52.147284],
            [21.069905, 52.145096],
            [21.067857, 52.144242],
            [21.071973, 52.139355],
            [21.072329, 52.137233],
            [21.073955, 52.137374],
            [21.075619, 52.13547],
            [21.079183, 52.135393],
            [21.080365, 52.133217],
            [21.076654, 52.132478],
            [21.080916, 52.132865],
            [21.081883, 52.130923],
            [21.081152, 52.130208],
            [21.082465, 52.129057],
            [21.081381, 52.128514],
            [21.082019, 52.127717],
            [21.083132, 52.128628],
            [21.085614, 52.126742],
            [21.087414, 52.124064],
            [21.087241, 52.123067],
            [21.088446, 52.123102],
            [21.090208, 52.121128],
            [21.091725, 52.118422],
            [21.089074, 52.118227],
            [21.090809, 52.117355],
            [21.091711, 52.117651],
            [21.094216, 52.114741],
            [21.093582, 52.114502],
            [21.089128, 52.114886],
            [21.08651, 52.11446],
            [21.092466, 52.114149],
            [21.095083, 52.113762],
            [21.098348, 52.108747],
            [21.100908, 52.108138],
            [21.1001, 52.108353],
            [21.110097, 52.113169],
            [21.108743, 52.114594],
            [21.111704, 52.116021],
            [21.116231, 52.118867],
            [21.118009, 52.118541],
            [21.121887, 52.119713],
            [21.123716, 52.121027],
            [21.126478, 52.124162],
            [21.127062, 52.125805],
            [21.129564, 52.127181],
            [21.131566, 52.124889],
            [21.132455, 52.123259],
            [21.134703, 52.123428],
            [21.13601, 52.127873],
            [21.138904, 52.131085],
            [21.140134, 52.131576],
            [21.140124, 52.132947],
            [21.1412, 52.133195],
            [21.145039, 52.135453],
            [21.147943, 52.138515],
            [21.150488, 52.139857],
            [21.153852, 52.140132],
            [21.153141, 52.142505],
            [21.154693, 52.1436],
            [21.164958, 52.144727],
            [21.163121, 52.145752],
            [21.160926, 52.148374],
            [21.156831, 52.15079],
            [21.151968, 52.152379],
            [21.148636, 52.153947],
            [21.144666, 52.157417],
            [21.143569, 52.159283],
            [21.142359, 52.16405],
            [21.14099, 52.166708],
            [21.138945, 52.169291],
            [21.136593, 52.171366],
            [21.133994, 52.17312],
            [21.129313, 52.175443],
            [21.122917, 52.177804],
            [21.118969, 52.17971],
            [21.114717, 52.182521],
            [21.112241, 52.184671],
            [21.10839, 52.189063],
            [21.104912, 52.194522],
            [21.102794, 52.192742],
            [21.100147, 52.191791],
            [21.099288, 52.190971],
            [21.099314, 52.187822],
            [21.098201, 52.186542],
            [21.096098, 52.18604],
            [21.095085, 52.185192],
            [21.094225, 52.1828],
            [21.094758, 52.180965],
            [21.089702, 52.180623],
            [21.08915, 52.181299],
            [21.081521, 52.184537],
            [21.081047, 52.184551],
            [21.072658, 52.179325],
            [21.072367, 52.178633],
            [21.068333, 52.176401],
            [21.065786, 52.175529],
            [21.065132, 52.176095],
            [21.06306, 52.175314],
            [21.068613, 52.170206],
            [21.067952, 52.169631],
            [21.061781, 52.170219],
            [21.054105, 52.169484]
          ]
        ]
      },
      "properties": { "name": "Wilanów" },
      "id": "relation/2536108"
    },
    {
      "type": "Feature",
      "geometry": {
        "type": "Polygon",
        "coordinates": [
          [
            [21.063564, 52.218946],
            [21.067501, 52.218508],
            [21.076335, 52.218609],
            [21.079984, 52.218387],
            [21.084338, 52.217735],
            [21.089141, 52.216466],
            [21.092394, 52.215206],
            [21.097363, 52.218289],
            [21.119377, 52.232419],
            [21.124205, 52.232448],
            [21.127714, 52.233627],
            [21.12839, 52.234961],
            [21.13264, 52.239059],
            [21.130305, 52.240675],
            [21.131678, 52.241709],
            [21.132289, 52.243344],
            [21.118479, 52.254117],
            [21.11483, 52.256731],
            [21.115193, 52.259445],
            [21.11077, 52.259648],
            [21.088733, 52.260557],
            [21.07941, 52.259823],
            [21.074211, 52.259026],
            [21.073264, 52.258582],
            [21.06811, 52.258033],
            [21.06523, 52.257497],
            [21.063094, 52.256001],
            [21.055113, 52.252923],
            [21.050737, 52.251694],
            [21.045748, 52.249655],
            [21.044203, 52.248622],
            [21.04346, 52.246971],
            [21.043356, 52.243212],
            [21.040478, 52.240492],
            [21.036851, 52.238599],
            [21.042333, 52.233498],
            [21.046494, 52.228454],
            [21.049952, 52.224876],
            [21.053141, 52.222557],
            [21.055877, 52.221165],
            [21.061103, 52.219438],
            [21.063564, 52.218946]
          ]
        ]
      },
      "properties": { "name": "Praga-Południe" },
      "id": "relation/2544288"
    },
    {
      "type": "Feature",
      "geometry": {
        "type": "Polygon",
        "coordinates": [
          [
            [21.009642, 52.261287],
            [21.013968, 52.25614],
            [21.01855, 52.251212],
            [21.021875, 52.248194],
            [21.023789, 52.246905],
            [21.029301, 52.243837],
            [21.032866, 52.241568],
            [21.036851, 52.238599],
            [21.040478, 52.240492],
            [21.043356, 52.243212],
            [21.04346, 52.246971],
            [21.044203, 52.248622],
            [21.045748, 52.249655],
            [21.050737, 52.251694],
            [21.055113, 52.252923],
            [21.063094, 52.256001],
            [21.06523, 52.257497],
            [21.06811, 52.258033],
            [21.073264, 52.258582],
            [21.074211, 52.259026],
            [21.06746, 52.260425],
            [21.056748, 52.263354],
            [21.055571, 52.263323],
            [21.04394, 52.266667],
            [21.036603, 52.268648],
            [21.032726, 52.270525],
            [21.028475, 52.271343],
            [21.026571, 52.272054],
            [21.024742, 52.273811],
            [21.015612, 52.289507],
            [21.013125, 52.294851],
            [21.011761, 52.293648],
            [21.006155, 52.291852],
            [21.004395, 52.292021],
            [21.002987, 52.291371],
            [21.000584, 52.2933],
            [20.9992, 52.293156],
            [20.998341, 52.292139],
            [20.998795, 52.290337],
            [20.997107, 52.289429],
            [20.997346, 52.288474],
            [20.995762, 52.287751],
            [20.999051, 52.285027],
            [21.002254, 52.281006],
            [21.00377, 52.277636],
            [21.004728, 52.270809],
            [21.005715, 52.267427],
            [21.007767, 52.263434],
            [21.009642, 52.261287]
          ]
        ]
      },
      "properties": { "name": "Praga-Północ" },
      "id": "relation/2553341"
    },
    {
      "type": "Feature",
      "geometry": {
        "type": "Polygon",
        "coordinates": [
          [
            [20.995762, 52.287751],
            [20.997346, 52.288474],
            [20.997107, 52.289429],
            [20.998795, 52.290337],
            [20.998341, 52.292139],
            [20.9992, 52.293156],
            [21.000584, 52.2933],
            [21.002987, 52.291371],
            [21.004395, 52.292021],
            [21.006155, 52.291852],
            [21.011761, 52.293648],
            [21.013125, 52.294851],
            [21.013023, 52.297487],
            [21.014612, 52.297937],
            [21.016008, 52.296615],
            [21.017129, 52.296915],
            [21.017992, 52.295904],
            [21.023085, 52.297674],
            [21.022737, 52.298566],
            [21.024319, 52.298212],
            [21.031128, 52.299882],
            [21.030899, 52.300638],
            [21.032716, 52.300391],
            [21.041162, 52.302402],
            [21.051752, 52.305084],
            [21.051703, 52.304864],
            [21.060377, 52.306938],
            [21.062015, 52.308385],
            [21.06229, 52.307336],
            [21.06701, 52.307739],
            [21.083428, 52.307771],
            [21.08212, 52.311436],
            [21.077784, 52.321966],
            [21.089516, 52.323766],
            [21.086041, 52.331974],
            [21.086677, 52.33274],
            [21.085729, 52.334601],
            [21.085202, 52.337403],
            [21.082453, 52.33735],
            [21.080879, 52.343125],
            [21.085897, 52.343513],
            [21.0817, 52.35414],
            [21.07866, 52.353663],
            [21.076235, 52.359301],
            [21.077107, 52.359439],
            [21.073809, 52.367288],
            [21.063705, 52.365586],
            [21.061263, 52.365825],
            [21.060649, 52.36255],
            [21.05397, 52.363064],
            [21.049218, 52.361699],
            [21.048629, 52.363626],
            [21.044568, 52.364001],
            [21.040844, 52.362823],
            [21.030674, 52.361604],
            [21.027575, 52.365129],
            [21.025252, 52.363249],
            [21.025226, 52.361945],
            [21.023345, 52.357408],
            [21.021017, 52.356492],
            [21.020689, 52.356955],
            [21.013416, 52.35608],
            [21.013327, 52.356867],
            [21.009488, 52.356796],
            [21.008069, 52.35825],
            [21.008221, 52.360163],
            [21.005665, 52.364104],
            [20.999413, 52.363155],
            [20.99859, 52.362663],
            [20.994668, 52.36183],
            [20.991934, 52.362774],
            [20.97813, 52.358979],
            [20.971274, 52.358982],
            [20.966102, 52.368153],
            [20.954236, 52.367861],
            [20.952523, 52.366434],
            [20.944891, 52.366697],
            [20.943621, 52.36636],
            [20.93929, 52.36177],
            [20.935088, 52.36324],
            [20.939195, 52.358356],
            [20.938499, 52.358114],
            [20.933973, 52.359768],
            [20.930927, 52.357937],
            [20.929269, 52.358941],
            [20.926343, 52.359627],
            [20.924082, 52.359578],
            [20.922972, 52.357041],
            [20.912429, 52.352976],
            [20.918324, 52.348066],
            [20.921128, 52.346085],
            [20.923716, 52.343661],
            [20.925096, 52.341036],
            [20.925834, 52.33697],
            [20.925123, 52.32943],
            [20.925016, 52.328026],
            [20.925731, 52.32475],
            [20.927782, 52.321358],
            [20.931033, 52.318201],
            [20.937339, 52.314744],
            [20.944106, 52.312374],
            [20.94749, 52.310654],
            [20.951638, 52.307784],
            [20.955403, 52.303118],
            [20.957529, 52.301318],
            [20.963947, 52.297978],
            [20.969188, 52.296189],
            [20.973072, 52.295268],
            [20.980564, 52.294013],
            [20.985324, 52.292773],
            [20.989359, 52.291281],
            [20.993378, 52.289274],
            [20.995762, 52.287751]
          ]
        ]
      },
      "properties": { "name": "Białołęka" },
      "id": "relation/2556629"
    },
    {
      "type": "Feature",
      "geometry": {
        "type": "Polygon",
        "coordinates": [
          [
            [21.11077, 52.259648],
            [21.108096, 52.267814],
            [21.10904, 52.268424],
            [21.108737, 52.270408],
            [21.109742, 52.270658],
            [21.107875, 52.274346],
            [21.105009, 52.273995],
            [21.100524, 52.284093],
            [21.098925, 52.286485],
            [21.095837, 52.28626],
            [21.095201, 52.288161],
            [21.087796, 52.295557],
            [21.087574, 52.295514],
            [21.08357, 52.302855],
            [21.085513, 52.303248],
            [21.083428, 52.307771],
            [21.06701, 52.307739],
            [21.06229, 52.307336],
            [21.062015, 52.308385],
            [21.060377, 52.306938],
            [21.051703, 52.304864],
            [21.051752, 52.305084],
            [21.041162, 52.302402],
            [21.032716, 52.300391],
            [21.030899, 52.300638],
            [21.031128, 52.299882],
            [21.024319, 52.298212],
            [21.022737, 52.298566],
            [21.023085, 52.297674],
            [21.017992, 52.295904],
            [21.017129, 52.296915],
            [21.016008, 52.296615],
            [21.014612, 52.297937],
            [21.013023, 52.297487],
            [21.013125, 52.294851],
            [21.015612, 52.289507],
            [21.024742, 52.273811],
            [21.026571, 52.272054],
            [21.028475, 52.271343],
            [21.032726, 52.270525],
            [21.036603, 52.268648],
            [21.04394, 52.266667],
            [21.055571, 52.263323],
            [21.056748, 52.263354],
            [21.06746, 52.260425],
            [21.074211, 52.259026],
            [21.07941, 52.259823],
            [21.088733, 52.260557],
            [21.11077, 52.259648]
          ]
        ]
      },
      "properties": { "name": "Targówek" },
      "id": "relation/2556630"
    },
    {
      "type": "Feature",
      "geometry": {
        "type": "Polygon",
        "coordinates": [
          [
            [21.13264, 52.239059],
            [21.137425, 52.242771],
            [21.139446, 52.243214],
            [21.141764, 52.239079],
            [21.161711, 52.243024],
            [21.163613, 52.24157],
            [21.173388, 52.243491],
            [21.176677, 52.245035],
            [21.184104, 52.246316],
            [21.184438, 52.246935],
            [21.182907, 52.249506],
            [21.186971, 52.250399],
            [21.186956, 52.251774],
            [21.188891, 52.252298],
            [21.19039, 52.249661],
            [21.191339, 52.24993],
            [21.190483, 52.256175],
            [21.179344, 52.256702],
            [21.183231, 52.258442],
            [21.184289, 52.259922],
            [21.185089, 52.265157],
            [21.184983, 52.26625],
            [21.182987, 52.268514],
            [21.177451, 52.271453],
            [21.175347, 52.272946],
            [21.170671, 52.276967],
            [21.171183, 52.277321],
            [21.17245, 52.28676],
            [21.171466, 52.28925],
            [21.169216, 52.291106],
            [21.16652, 52.290632],
            [21.164319, 52.289716],
            [21.161492, 52.285679],
            [21.159715, 52.284771],
            [21.155622, 52.283699],
            [21.151558, 52.281458],
            [21.14905, 52.279353],
            [21.11982, 52.275767],
            [21.107875, 52.274346],
            [21.109742, 52.270658],
            [21.108737, 52.270408],
            [21.10904, 52.268424],
            [21.108096, 52.267814],
            [21.11077, 52.259648],
            [21.115193, 52.259445],
            [21.11483, 52.256731],
            [21.118479, 52.254117],
            [21.132289, 52.243344],
            [21.131678, 52.241709],
            [21.130305, 52.240675],
            [21.13264, 52.239059]
          ]
        ]
      },
      "properties": { "name": "Rembertów" },
      "id": "relation/2579781"
    },
    {
      "type": "Feature",
      "geometry": {
        "type": "Polygon",
        "coordinates": [
          [
            [21.104912, 52.194522],
            [21.10839, 52.189063],
            [21.112241, 52.184671],
            [21.114717, 52.182521],
            [21.118969, 52.17971],
            [21.122917, 52.177804],
            [21.129313, 52.175443],
            [21.133994, 52.17312],
            [21.136593, 52.171366],
            [21.138945, 52.169291],
            [21.14099, 52.166708],
            [21.142359, 52.16405],
            [21.143569, 52.159283],
            [21.144666, 52.157417],
            [21.148636, 52.153947],
            [21.151968, 52.152379],
            [21.156831, 52.15079],
            [21.160926, 52.148374],
            [21.163121, 52.145752],
            [21.164958, 52.144727],
            [21.171423, 52.145442],
            [21.175924, 52.146734],
            [21.175853, 52.148459],
            [21.188402, 52.150511],
            [21.188623, 52.149478],
            [21.201149, 52.150647],
            [21.214737, 52.152175],
            [21.215071, 52.151835],
            [21.218983, 52.153318],
            [21.219539, 52.153832],
            [21.2239, 52.155404],
            [21.234723, 52.15891],
            [21.248752, 52.153036],
            [21.247139, 52.151642],
            [21.255741, 52.147172],
            [21.262074, 52.152462],
            [21.262579, 52.153102],
            [21.25405, 52.157379],
            [21.255553, 52.15865],
            [21.256537, 52.160574],
            [21.260369, 52.162023],
            [21.261243, 52.165384],
            [21.263114, 52.167382],
            [21.267686, 52.167448],
            [21.267617, 52.16841],
            [21.270791, 52.168538],
            [21.270317, 52.169555],
            [21.267526, 52.170125],
            [21.267335, 52.173317],
            [21.269569, 52.17336],
            [21.269959, 52.172043],
            [21.271151, 52.172151],
            [21.271023, 52.17401],
            [21.270037, 52.173944],
            [21.259765, 52.182555],
            [21.263379, 52.183975],
            [21.265384, 52.186001],
            [21.240229, 52.19588],
            [21.238807, 52.197045],
            [21.216283, 52.197439],
            [21.216373, 52.201052],
            [21.215507, 52.202105],
            [21.216634, 52.204741],
            [21.218412, 52.205254],
            [21.215844, 52.208313],
            [21.214622, 52.209267],
            [21.215291, 52.21222],
            [21.213246, 52.214383],
            [21.21215, 52.214301],
            [21.206531, 52.220466],
            [21.207282, 52.220642],
            [21.206983, 52.222669],
            [21.207326, 52.227633],
            [21.211905, 52.230009],
            [21.207123, 52.233159],
            [21.200917, 52.234741],
            [21.196988, 52.234551],
            [21.184035, 52.239761],
            [21.181074, 52.241717],
            [21.176677, 52.245035],
            [21.173388, 52.243491],
            [21.163613, 52.24157],
            [21.161711, 52.243024],
            [21.141764, 52.239079],
            [21.139446, 52.243214],
            [21.137425, 52.242771],
            [21.13264, 52.239059],
            [21.12839, 52.234961],
            [21.127714, 52.233627],
            [21.124205, 52.232448],
            [21.119377, 52.232419],
            [21.097363, 52.218289],
            [21.092394, 52.215206],
            [21.095247, 52.213775],
            [21.099168, 52.211223],
            [21.102515, 52.207362],
            [21.104089, 52.204073],
            [21.104715, 52.201577],
            [21.104912, 52.194522]
          ]
        ]
      },
      "properties": { "name": "Wawer" },
      "id": "relation/2579782"
    },
    {
      "type": "Feature",
      "geometry": {
        "type": "Polygon",
        "coordinates": [
          [
            [21.176677, 52.245035],
            [21.181074, 52.241717],
            [21.184035, 52.239761],
            [21.196988, 52.234551],
            [21.200917, 52.234741],
            [21.207123, 52.233159],
            [21.211905, 52.230009],
            [21.207326, 52.227633],
            [21.206983, 52.222669],
            [21.207282, 52.220642],
            [21.206531, 52.220466],
            [21.21215, 52.214301],
            [21.213246, 52.214383],
            [21.215291, 52.21222],
            [21.214622, 52.209267],
            [21.215844, 52.208313],
            [21.218412, 52.205254],
            [21.216634, 52.204741],
            [21.215507, 52.202105],
            [21.216373, 52.201052],
            [21.216283, 52.197439],
            [21.238807, 52.197045],
            [21.240229, 52.19588],
            [21.242985, 52.198384],
            [21.243006, 52.19933],
            [21.245733, 52.200863],
            [21.25095, 52.202494],
            [21.248591, 52.204233],
            [21.248235, 52.20598],
            [21.24909, 52.20696],
            [21.254143, 52.209435],
            [21.261727, 52.210073],
            [21.2505, 52.222236],
            [21.249457, 52.222558],
            [21.250428, 52.231928],
            [21.254381, 52.235273],
            [21.254769, 52.238733],
            [21.251258, 52.237787],
            [21.248782, 52.236602],
            [21.245273, 52.236068],
            [21.239467, 52.236256],
            [21.237949, 52.245027],
            [21.253717, 52.245762],
            [21.254644, 52.253169],
            [21.25243, 52.253271],
            [21.250469, 52.262692],
            [21.190483, 52.256175],
            [21.191339, 52.24993],
            [21.19039, 52.249661],
            [21.188891, 52.252298],
            [21.186956, 52.251774],
            [21.186971, 52.250399],
            [21.182907, 52.249506],
            [21.184438, 52.246935],
            [21.184104, 52.246316],
            [21.176677, 52.245035]
          ]
        ]
      },
      "properties": { "name": "Wesoła" },
      "id": "relation/2579783"
    }
  ]
}
